NORAD_CAT_ID,OBJECT_NAME,OBJECT_TYPE,EPOCH,MEAN_MOTION,ECCENTRICITY,INCLINATION,RA_OF_ASC_NODE,ARG_OF_PERICENTER,MEAN_ANOMALY,BSTAR,MEAN_MOTION_DOT,MEAN_MOTION_DDOT,TLE_LINE0,TLE_LINE1,TLE_LINE2,SEMIMAJOR_AXIS,PERIOD,APOGEE,PERIGEE,DECAYED
53171.0,STARLINK-4052,PAYLOAD,2023-08-05 23:45:29,15.08859228,0.0001346,53.2169,63.7758,89.5089,270.6057,0.00043763,6.687e-05,0.0,0 STARLINK-4052,1 53171U 22083AR  23217.98992555  .00006687  00000-0  43763-3 0  9992,2 53171  53.2169  63.7758 0001346  89.5089 270.6057 15.08859228 59496,6917.822,95.436,540.618,538.755,0.0
53171.0,STARLINK-4052,PAYLOAD,2023-08-06 17:14:45,15.08825597,0.0001195,53.2164,60.5048,110.1178,249.9943,-0.0002084,-3.602e-05,0.0,0 STARLINK-4052,1 53171U 22083AR  23218.71858093 -.00003602  00000-0 -20840-3 0  9999,2 53171  53.2164  60.5048 0001195 110.1178 249.9943 15.08825597 59608,6917.924,95.438,540.616,538.963,0.0
53171.0,STARLINK-4052,PAYLOAD,2023-08-07 20:16:19,15.08843885,0.0001012,53.2162,55.4524,106.3193,253.791,0.00083896,0.00013091,0.0,0 STARLINK-4052,1 53171U 22083AR  23219.84466803  .00013091  00000-0  83896-3 0  9999,2 53171  53.2162  55.4524 0001012 106.3193 253.7910 15.08843885 59775,6917.869,95.437,540.434,539.033,0.0
53171.0,STARLINK-4052,PAYLOAD,2023-08-08 21:42:28,15.08862923,9.52e-05,53.2163,50.6947,105.6637,254.446,0.00066612,0.00010336,0.0,0 STARLINK-4052,1 53171U 22083AR  23220.90449893  .00010336  00000-0  66612-3 0  9994,2 53171  53.2163  50.6947 0000952 105.6637 254.4460 15.08862923 59939,6917.81,95.436,540.334,539.017,0.0
53171.0,STARLINK-4052,PAYLOAD,2023-08-09 05:39:24,15.08852814,0.0001789,53.2166,49.2077,78.3465,281.7728,0.00058626,9.058e-05,0.0,0 STARLINK-4052,1 53171U 22083AR  23221.23570025  .00009058  00000-0  58626-3 0  9998,2 53171  53.2166  49.2077 0001789  78.3465 281.7728 15.08852814 59987,6917.841,95.437,540.944,538.469,0.0
53171.0,STARLINK-4052,PAYLOAD,2023-08-09 19:57:52,15.08844408,9.78e-05,53.2167,46.5329,87.9349,272.1755,0.00019327,2.79e-05,0.0,0 STARLINK-4052,1 53171U 22083AR  23221.83185887  .00002790  00000-0  19327-3 0  9993,2 53171  53.2167  46.5329 0000978  87.9349 272.1755 15.08844408 60070,6917.867,95.437,540.408,539.055,0.0
53171.0,STARLINK-4052,PAYLOAD,2023-08-10 05:30:11,15.088408,0.000118,53.2172,44.7504,75.6681,284.4442,0.00010602,1.4e-05,0.0,0 STARLINK-4052,1 53171U 22083AR  23222.22930113  .00001400  00000-0  10602-3 0  9991,2 53171  53.2172  44.7504 0001180  75.6681 284.4442 15.08840800 60138,6917.878,95.438,540.559,538.927,0.0
53171.0,STARLINK-4052,PAYLOAD,2023-08-11 18:04:03,15.08845355,0.0001147,53.2153,37.9088,86.5371,273.5752,0.00021937,3.206e-05,0.0,0 STARLINK-4052,1 53171U 22083AR  23223.75282069  .00003206  00000-0  21937-3 0  9999,2 53171  53.2153  37.9088 0001147  86.5371 273.5752 15.08845355 60366,6917.864,95.437,540.522,538.936,0.0
53171.0,STARLINK-4052,PAYLOAD,2023-08-12 17:54:50,15.08840704,0.0001163,53.2173,33.4474,87.4376,272.6749,5.0863e-05,5.22e-06,0.0,0 STARLINK-4052,1 53171U 22083AR  23224.74642079  .00000522  00000-0  50863-4 0  9999,2 53171  53.2173  33.4474 0001163  87.4376 272.6749 15.08840704 60517,6917.878,95.438,540.548,538.939,0.0
53171.0,STARLINK-4052,PAYLOAD,2023-08-13 19:21:00,15.08843643,0.0001023,53.2182,28.6888,91.0023,269.1086,2.0835e-05,4.4e-07,0.0,0 STARLINK-4052,1 53171U 22083AR  23225.80626020  .00000044  00000-0  20835-4 0  9990,2 53171  53.2182  28.6888 0001023  91.0023 269.1086 15.08843643 60674,6917.869,95.437,540.442,539.027,0.0
53171.0,STARLINK-4052,PAYLOAD,2023-08-14 11:14:52,15.08836184,0.0001053,53.2189,25.714,90.4012,269.7101,4.8389e-05,4.82e-06,0.0,0 STARLINK-4052,1 53171U 22083AR  23226.46866513  .00000482  00000-0  48389-4 0  9996,2 53171  53.2189  25.7140 0001053  90.4012 269.7101 15.08836184 60771,6917.892,95.438,540.486,539.029,0.0
53171.0,STARLINK-4052,PAYLOAD,2023-08-14 17:36:24,15.0884671,9.97e-05,53.2186,24.5267,91.3898,268.7208,5.4444e-05,5.79e-06,0.0,0 STARLINK-4052,1 53171U 22083AR  23226.73361916  .00000579  00000-0  54444-4 0  9999,2 53171  53.2186  24.5267 0000997  91.3898 268.7208 15.08846710 60811,6917.86,95.437,540.415,539.035,0.0
53171.0,STARLINK-4052,PAYLOAD,2023-08-15 11:05:39,15.08827051,0.0001448,53.2194,21.2524,97.5023,262.6134,0.00022385,3.275e-05,0.0,0 STARLINK-4052,1 53171U 22083AR  23227.46226635  .00003275  00000-0  22385-3 0  9992,2 53171  53.2194  21.2524 0001448  97.5023 262.6134 15.08827051 60920,6917.92,95.438,540.787,538.783,0.0
53171.0,STARLINK-4052,PAYLOAD,2023-08-15 17:27:11,15.08844177,0.0001438,53.2184,20.0638,96.766,263.3496,0.0001034,1.358e-05,0.0,0 STARLINK-4052,1 53171U 22083AR  23227.72722082  .00001358  00000-0  10340-3 0  9996,2 53171  53.2184  20.0638 0001438  96.7660 263.3496 15.08844177 60960,6917.868,95.437,540.727,538.738,0.0
53171.0,STARLINK-4052,PAYLOAD,2023-08-16 02:59:31,15.08835592,0.0001095,53.2177,18.283,84.0351,276.0766,1.2472e-05,-8.9e-07,0.0,0 STARLINK-4052,1 53171U 22083AR  23228.12467079 -.00000089  00000-0  12472-4 0  9993,2 53171  53.2177  18.2830 0001095  84.0351 276.0766 15.08835592 61021,6917.894,95.438,540.516,539.001,0.0
53171.0,STARLINK-4052,PAYLOAD,2023-08-17 02:50:18,15.08849033,0.0001116,53.2153,13.8228,94.3657,265.7463,-6.2544e-05,-1.283e-05,0.0,0 STARLINK-4052,1 53171U 22083AR  23229.11826443 -.00001283  00000-0 -62544-4 0  9990,2 53171  53.2153  13.8228 0001116  94.3657 265.7463 15.08849033 61174,6917.853,95.437,540.49,538.946,0.0
53171.0,STARLINK-4052,PAYLOAD,2023-08-18 09:02:37,15.08840527,0.0001485,53.2146,8.1748,85.5215,274.5947,9.2023e-05,1.177e-05,0.0,0 STARLINK-4052,1 53171U 22083AR  23230.37682870  .00001177  00000-0  92023-4 0  9999,2 53171  53.2146   8.1748 0001485  85.5215 274.5947 15.08840527 61366,6917.879,95.438,540.771,538.716,0.0
53171.0,STARLINK-4052,PAYLOAD,2023-08-19 18:25:43,15.08845183,0.0001111,53.2176,1.9264,106.6245,253.4869,0.00017279,2.464e-05,0.0,0 STARLINK-4052,1 53171U 22083AR  23231.76786473  .00002464  00000-0  17279-3 0  9996,2 53171  53.2176   1.9264 0001111 106.6245 253.4869 15.08845183 61572,6917.865,95.437,540.498,538.961,0.0
53171.0,STARLINK-4052,PAYLOAD,2023-08-20 08:44:12,15.08835945,9.74e-05,53.2172,359.2512,101.2735,258.8367,0.00010127,1.324e-05,0.0,0 STARLINK-4052,1 53171U 22083AR  23232.36403024  .00001324  00000-0  10127-3 0  9990,2 53171  53.2172 359.2512 0000974 101.2735 258.8367 15.08835945 61661,6917.893,95.438,540.432,539.084,0.0
53171.0,STARLINK-4052,PAYLOAD,2023-08-20 15:05:44,15.08844259,0.0001153,53.2179,358.0626,102.9164,257.1957,0.00016539,2.346e-05,0.0,0 STARLINK-4052,1 53171U 22083AR  23232.62898746  .00002346  00000-0  16539-3 0  9996,2 53171  53.2179 358.0626 0001153 102.9164 257.1957 15.08844259 61705,6917.867,95.437,540.53,538.935,0.0
53171.0,STARLINK-4052,PAYLOAD,2023-08-21 11:45:45,15.08839096,0.0001282,53.218,354.1984,95.5518,264.5621,8.8377e-05,1.119e-05,0.0,0 STARLINK-4052,1 53171U 22083AR  23233.49011141  .00001119  00000-0  88377-4 0  9995,2 53171  53.2180 354.1984 0001282  95.5518 264.5621 15.08839096 61831,6917.883,95.438,540.635,538.861,0.0
53171.0,STARLINK-4052,PAYLOAD,2023-08-22 16:22:42,15.08840233,0.0001204,53.2176,348.843,93.8277,266.2853,7.6187e-05,9.25e-06,0.0,0 STARLINK-4052,1 53171U 22083AR  23234.68243252  .00000925  00000-0  76187-4 0  9997,2 53171  53.2176 348.8430 0001204  93.8277 266.2853 15.08840233 62011,6917.88,95.438,540.578,538.912,0.0
53171.0,STARLINK-4052,PAYLOAD,2023-08-24 11:18:07,15.0882411,0.0001143,53.2177,340.8139,107.6736,252.4381,-0.0001403,-2.519e-05,0.0,0 STARLINK-4052,1 53171U 22083AR  23236.47092529 -.00002519  00000-0 -14030-3 0  9996,2 53171  53.2177 340.8139 0001143 107.6736 252.4381 15.08824110 61643,6917.929,95.439,540.585,539.003,0.0
53171.0,STARLINK-4052,PAYLOAD,2023-08-25 06:22:45,15.0883801,9.04e-05,53.2172,337.2455,96.634,263.4755,9.4694e-06,-1.37e-06,0.0,0 STARLINK-4052,1 53171U 22083AR  23237.26580469 -.00000137  00000-0  94694-5 0  9998,2 53171  53.2172 337.2455 0000904  96.6340 263.4755 15.08838010 62407,6917.886,95.438,540.377,539.126,0.0
53171.0,STARLINK-4052,PAYLOAD,2023-08-25 12:44:17,15.08847799,9.89e-05,53.217,336.0584,94.6451,265.4654,0.00017919,2.566e-05,0.0,0 STARLINK-4052,1 53171U 22083AR  23237.53076063  .00002566  00000-0  17919-3 0  9998,2 53171  53.2170 336.0584 0000989  94.6451 265.4654 15.08847799 61806,6917.857,95.437,540.406,539.037,0.0
53171.0,STARLINK-4052,PAYLOAD,2023-08-25 14:19:40,15.08848651,0.000104,53.2167,335.7605,96.7388,263.3722,0.00038608,5.863e-05,0.0,0 STARLINK-4052,1 53171U 22083AR  23237.59700230  .00005863  00000-0  38608-3 0  9995,2 53171  53.2167 335.7605 0001040  96.7388 263.3722 15.08848651 62456,6917.854,95.437,540.438,538.999,0.0
53171.0,STARLINK-4052,PAYLOAD,2023-08-26 10:59:41,15.08850563,0.0001148,53.2171,331.895,99.882,260.2301,0.0004177,6.368e-05,0.0,0 STARLINK-4052,1 53171U 22083AR  23238.45812217  .00006368  00000-0  41770-3 0  9995,2 53171  53.2171 331.8950 0001148  99.8820 260.2301 15.08850563 62583,6917.848,95.437,540.507,538.919,0.0
53171.0,STARLINK-4052,PAYLOAD,2023-08-27 06:04:19,15.08849449,0.0001202,53.2173,328.3285,77.2614,282.8513,0.00017148,2.443e-05,0.0,0 STARLINK-4052,1 53171U 22083AR  23239.25299836  .00002443  00000-0  17148-3 0  9992,2 53171  53.2173 328.3285 0001202  77.2614 282.8513 15.08849449 62709,6917.852,95.437,540.548,538.885,0.0
53171.0,STARLINK-4052,PAYLOAD,2023-08-27 12:25:51,15.08849202,0.0001111,53.2178,327.1379,87.1679,272.944,4.3494e-05,4.05e-06,0.0,0 STARLINK-4052,1 53171U 22083AR  23239.51795713  .00000405  00000-0  43494-4 0  9996,2 53171  53.2178 327.1379 0001111  87.1679 272.9440 15.08849202 62105,6917.852,95.437,540.486,538.949,0.0
53171.0,STARLINK-4052,PAYLOAD,2023-08-28 09:05:52,15.08842214,0.0001193,53.2177,323.2737,74.5029,285.6095,1.2527e-05,-8.8e-07,0.0,0 STARLINK-4052,1 53171U 22083AR  23240.37907893 -.00000088  00000-0  12527-4 0  9997,2 53171  53.2177 323.2737 0001193  74.5029 285.6095 15.08842214 62875,6917.874,95.437,540.564,538.913,0.0
